      2.10          N: GNSS NAV DATA                        RINEX VERSION / TYPE
fic2rin                                 01/31/2021 00:17:17 PGM / RUN BY / DATE
                                                            END OF HEADER
17 21  1 30 16  0  0.0 3.868406638503e-04 4.888534022029e-12 0.000000000000e+00
    6.800000000000e+01 1.343437500000e+02 3.664438352852e-09-2.050473308227e+00
    6.938353180885e-06 1.355693244841e-02 1.131556928158e-05 5.153546094894e+03
    5.760000000000e+05 2.831220626831e-07-2.308049165706e+00 1.285225152969e-07
    9.830372328866e-01 1.727812500000e+02-1.581980083889e+00-7.489240528358e-09
    9.750406143553e-11 1.000000000000e+00 2.142000000000e+03 0.000000000000e+00
    2.400000000000e+00 0.000000000000e+00-1.117587089539e-08 6.800000000000e+01
    5.688000000000e+05 4.000000000000e+00
23 21  1 30 16  0  0.0 1.176693476737e-04 7.958078640513e-13 0.000000000000e+00
    1.250000000000e+02-1.232187500000e+02 4.470900516667e-09 1.883437219532e+00
   -6.467103958130e-06 1.064720680006e-03 6.219372153282e-06 5.153649656296e+03
    5.760000000000e+05-5.587935447693e-09-2.978825889426e-01-3.539025783539e-08
    9.633123865818e-01 2.614687500000e+02 2.383613052354e+00-8.180340744027e-09
   -2.514390448740e-10 1.000000000000e+00 2.142000000000e+03 0.000000000000e+00
    2.400000000000e+00 0.000000000000e+00-8.381903171539e-09 6.370000000000e+02
    5.688000000000e+05 4.000000000000e+00
18 21  1 30 16  0  0.0 3.446564078331e-04 2.273736754432e-12 0.000000000000e+00
    9.900000000000e+01 4.053125000000e+01 4.631621497055e-09 2.251653451387e+00
    2.138316631317e-06 1.185184693895e-03 1.318752765656e-06 5.153689332962e+03
    5.760000000000e+05-1.303851604462e-08-1.297473423079e+00 4.842877388000e-08
    9.664550506064e-01 3.563437500000e+02 3.044500572743e+00-8.459995249903e-09
    1.857220217820e-10 1.000000000000e+00 2.142000000000e+03 0.000000000000e+00
    2.400000000000e+00 0.000000000000e+00-8.381903171539e-09 3.550000000000e+02
    5.688000000000e+05 4.000000000000e+00
28 21  1 30 16  0  0.0 6.225430406630e-04-5.343281372916e-12 0.000000000000e+00
    7.400000000000e+01-1.653125000000e+01 4.295536069176e-09-1.237118073745e+00
   -8.288770914078e-07 1.797274814453e-02 1.033209264278e-05 5.153667467117e+03
    5.760000000000e+05-3.464519977570e-07 2.962614799724e+00 1.415610313416e-07
    9.745176763671e-01 1.910625000000e+02-1.353565121078e+00-8.068193215490e-09
   -7.496740840776e-10 1.000000000000e+00 2.142000000000e+03 0.000000000000e+00
    4.850000000000e+00 0.000000000000e+00-1.117587089539e-08 7.400000000000e+01
    5.688000000000e+05 4.000000000000e+00
28 21  1 30 15 59 44.0 6.225416436791e-04-5.343281372916e-12 0.000000000000e+00
    4.700000000000e+01-1.653125000000e+01 4.295893226910e-09-1.239451801125e+00
   -8.288770914078e-07 1.797275058925e-02 1.033209264278e-05 5.153667465210e+03
    5.759840000000e+05-3.464519977570e-07 2.962614924072e+00 1.415610313416e-07
    9.745176866076e-01 1.910625000000e+02-1.353565116689e+00-8.068193215490e-09
   -7.500312418118e-10 1.000000000000e+00 2.142000000000e+03 0.000000000000e+00
    2.400000000000e+00 0.000000000000e+00-1.117587089539e-08 4.700000000000e+01
    5.715600000000e+05 4.000000000000e+00
30 21  1 30 15 59 44.0-3.771041519940e-04-5.911715561524e-12 0.000000000000e+00
    4.000000000000e+00 2.028125000000e+01 5.745239312278e-09 1.454863888692e+00
    1.246109604836e-06 4.800796741620e-03 4.809349775314e-06 5.153743434906e+03
    5.759840000000e+05 5.029141902924e-08 1.849770117322e+00 7.264316082001e-08
    9.368204323427e-01 2.751250000000e+02-2.847825125930e+00-8.717148818524e-09
    1.653640309328e-10 1.000000000000e+00 2.142000000000e+03 0.000000000000e+00
    2.400000000000e+00 0.000000000000e+00 3.725290298462e-09 4.000000000000e+00
    5.728200000000e+05 4.000000000000e+00
15 21  1 30 15 59 44.0-1.727864146233e-04 2.614797267597e-12 0.000000000000e+00
    1.000000000000e+00-4.346875000000e+01 5.024137846936e-09-2.958933218623e+00
   -2.443790435791e-06 1.304403226823e-02 1.204386353493e-05 5.153564388275e+03
    5.759840000000e+05 1.192092895508e-07 6.616340123752e-01-2.291053533554e-07
    9.289936494572e-01 1.292500000000e+02 9.639052941131e-01-7.960331579762e-09
    4.210889686172e-10 1.000000000000e+00 2.142000000000e+03 0.000000000000e+00
    2.400000000000e+00 0.000000000000e+00-1.071020960808e-08 1.000000000000e+00
    5.757000000000e+05 4.000000000000e+00
30 21  1 30 17 59 44.0-3.771465271711e-04-5.911715561524e-12 0.000000000000e+00
    5.000000000000e+00 2.353125000000e+01 5.726309952366e-09 2.505110748284e+00
    1.272186636925e-06 4.800923052244e-03 4.807487130165e-06 5.153742515564e+03
    5.831840000000e+05-1.024454832077e-07 1.849707018739e+00-2.421438694000e-08
    9.368224467809e-01 2.767812500000e+02-2.847924064543e+00-8.596786662100e-09
    2.785830326729e-10 1.000000000000e+00 2.142000000000e+03 0.000000000000e+00
    2.400000000000e+00 0.000000000000e+00 3.725290298462e-09 5.000000000000e+00
    5.760000000000e+05 4.000000000000e+00
15 21  1 30 17 59 44.0-1.727677881718e-04 2.614797267597e-12 0.000000000000e+00
    2.700000000000e+01-4.521875000000e+01 4.903418532778e-09-1.908610329716e+00
   -2.466142177582e-06 1.304289279506e-02 1.223199069500e-05 5.153567132950e+03
    5.831840000000e+05 2.011656761169e-07 6.615760486351e-01-6.705522537231e-08
    9.289972189774e-01 1.185000000000e+02 9.638328416323e-01-7.982475359282e-09
    5.303792352812e-10 1.000000000000e+00 2.142000000000e+03 0.000000000000e+00
    2.400000000000e+00 0.000000000000e+00-1.071020960808e-08 2.700000000000e+01
    5.760000000000e+05 4.000000000000e+00
28 21  1 30 17 59 44.0 6.225039251149e-04-5.343281372916e-12 0.000000000000e+00
    4.800000000000e+01-2.112500000000e+01 4.408040755448e-09-1.892982654669e-01
   -1.093372702599e-06 1.797166524921e-02 9.993091225624e-06 5.153665189743e+03
    5.831840000000e+05-1.862645149231e-07 2.962555441823e+00-6.146728992462e-08
    9.745124610642e-01 1.991562500000e+02-1.353534407112e+00-8.201770208079e-09
   -6.518128649079e-10 1.000000000000e+00 2.142000000000e+03 0.000000000000e+00
    2.400000000000e+00 0.000000000000e+00-1.117587089539e-08 4.800000000000e+01
    5.760000000000e+05 4.000000000000e+00
 2 21  1 30 18  0  0.0-5.716546438634e-04-4.092726157978e-12 0.000000000000e+00
    3.000000000000e+01 7.921875000000e+01 4.670908847816e-09-2.856837672676e+00
    4.116445779800e-06 2.039450674783e-02 9.648501873016e-07 5.153604021072e+03
    5.832000000000e+05 2.402812242508e-07-1.392484058230e+00 1.303851604462e-08
    9.615671794412e-01 3.617812500000e+02-1.552895663263e+00-8.178554955356e-09
    3.203704875739e-10 1.000000000000e+00 2.142000000000e+03 0.000000000000e+00
    2.400000000000e+00 0.000000000000e+00-1.769512891769e-08 3.000000000000e+01
    5.760000000000e+05 4.000000000000e+00
 1 21  1 30 18  0  0.0 7.708235643804e-04-7.162270776462e-12 0.000000000000e+00
    1.850000000000e+02 4.487500000000e+01 4.200532111880e-09-3.100927455995e+00
    2.328306436539e-06 1.031469251029e-02 1.307576894760e-06 5.153686244965e+03
    5.832000000000e+05 6.705522537231e-08-1.311046009826e+00-6.519258022308e-08
    9.827774669120e-01 3.665937500000e+02 8.200398294476e-01-8.091051310478e-09
    2.214377952016e-10 1.000000000000e+00 2.142000000000e+03 0.000000000000e+00
    3.400000000000e+00 0.000000000000e+00 4.656612873077e-09 1.850000000000e+02
    5.760000000000e+05 4.000000000000e+00
 5 21  1 30 18  0  0.0-3.237184137106e-05-1.023181539495e-12 0.000000000000e+00
    2.800000000000e+01-1.340000000000e+02 4.651265172436e-09-2.843821357603e-01
   -6.841495633125e-06 6.005559116602e-03 5.882233381271e-06 5.153812856674e+03
    5.832000000000e+05 3.166496753693e-08-3.074261661738e-01 1.080334186554e-07
    9.553827503149e-01 2.631562500000e+02 8.847284357591e-01-8.442851678661e-09
   -2.732256666600e-10 1.000000000000e+00 2.142000000000e+03 0.000000000000e+00
    2.400000000000e+00 0.000000000000e+00-1.117587089539e-08 2.800000000000e+01
    5.760000000000e+05 4.000000000000e+00
 3 21  1 30 18  0  0.0-6.995443254709e-05-1.000444171950e-11 0.000000000000e+00
    3.100000000000e+01-1.246875000000e+02 4.266606292706e-09 2.029837868563e+00
   -6.426125764847e-06 3.267703577876e-03 6.686896085739e-06 5.153666448593e+03
    5.832000000000e+05-7.636845111847e-08-2.721557335444e-01-6.891787052155e-08
    9.684677859649e-01 2.526562500000e+02 8.583607256896e-01-8.083908155794e-09
   -2.335811581642e-10 1.000000000000e+00 2.142000000000e+03 0.000000000000e+00
    2.400000000000e+00 0.000000000000e+00 1.862645149231e-09 3.100000000000e+01
    5.760000000000e+05 4.000000000000e+00
 8 21  1 30 18  0  0.0-8.490867912769e-06-1.364242052659e-12 0.000000000000e+00
    6.400000000000e+01 1.015625000000e+02 4.008024093148e-09-8.886424760061e-01
    5.232170224190e-06 6.169626605697e-03 1.078657805920e-05 5.153788719177e+03
    5.832000000000e+05 4.656612873077e-08-2.384337577162e+00-1.657754182816e-07
    9.684569867036e-01 1.785000000000e+02-2.975185944437e-02-7.775323873449e-09
   -6.785996949726e-12 1.000000000000e+00 2.142000000000e+03 0.000000000000e+00
    2.400000000000e+00 0.000000000000e+00 5.122274160385e-09 6.400000000000e+01
    5.760000000000e+05 4.000000000000e+00
 6 21  1 30 18  0  0.0-3.978144377470e-06 6.821210263297e-13 0.000000000000e+00
    9.100000000000e+01 5.546875000000e+01 4.348038256103e-09-2.737826385961e+00
    2.892687916756e-06 2.289175870828e-03 1.255422830582e-06 5.153697019577e+03
    5.832000000000e+05 5.960464477539e-08-1.319303916132e+00-3.911554813385e-08
    9.822672566768e-01 3.681562500000e+02-1.099371124969e+00-8.328561203718e-09
    1.996511734156e-10 1.000000000000e+00 2.142000000000e+03 0.000000000000e+00
    2.400000000000e+00 0.000000000000e+00 3.725290298462e-09 9.100000000000e+01
    5.760000000000e+05 4.000000000000e+00
